{"type": "FeatureCollection", "features": [ {"type": "Feature", "properties": {"norad_id": 37926, "name": "FENGYUN 1C DEB", "group": "fengyun-1c-debris", "lat": -80.6989469411768, "lon": 131.56479868218693, "alt_km": 815.4544292690425, "timestamp": "2025-12-24T20:42:21.316364+00:00", "meta": {"OBJECT_NAME": "FENGYUN 1C DEB", "OBJECT_ID": "1999-025EPB", "EPOCH": "2025-12-23T22:20:37.948128", "MEAN_MOTION": 14.24292441, "ECCENTRICITY": 0.00546, "INCLINATION": 98.7226, "RA_OF_ASC_NODE": 61.0201, "ARG_OF_PERICENTER": 189.5997, "MEAN_ANOMALY": 348.1864, "EPHEMERIS_TYPE": 0, "CLASSIFICATION_TYPE": "U", "NORAD_CAT_ID": 37926, "ELEMENT_SET_NO": 999, "REV_AT_EPOCH": 74429, "BSTAR": 0.0015515, "MEAN_MOTION_DOT": 3.595e-05, "MEAN_MOTION_DDOT": 0}, "tle": {"line1": "1 37926U 99025EPB 25357.93099477  .00003595  00000+0  15515-2 0  9992", "line2": "2 37926  98.7226  61.0201 0054600 189.5997 348.1864 14.24292441744299"}}, "geometry": {"type": "Point", "coordinates": [131.56479868218693, -80.6989469411768]}}, {"type": "Feature", "properties": {"norad_id": 37927, "name": "FENGYUN 1C DEB", "group": "fengyun-1c-debris", "lat": 18.941209168579444, "lon": -33.40803525874243, "alt_km": 653.0635395071085, "timestamp": "2025-12-24T20:42:21.316375+00:00", "meta": {"OBJECT_NAME": "FENGYUN 1C DEB", "OBJECT_ID": "1999-025EPC", "EPOCH": "2025-12-20T03:25:18.230304", "MEAN_MOTION": 14.72067181, "ECCENTRICITY": 0.00083592, "INCLINATION": 98.8071, "RA_OF_ASC_NODE": 138.4338, "ARG_OF_PERICENTER": 253.9424, "MEAN_ANOMALY": 106.086, "EPHEMERIS_TYPE": 0, "CLASSIFICATION_TYPE": "U", "NORAD_CAT_ID": 37927, "ELEMENT_SET_NO": 999, "REV_AT_EPOCH": 65225, "BSTAR": 0.0024443804, "MEAN_MOTION_DOT": 0.00015349, "MEAN_MOTION_DDOT": 0}, "tle": {"line1": "1 37927U 99025EPC 25354.14257211  .00015349  00000+0  24444-2 0  9996", "line2": "2 37927  98.8071 138.4338 0008359 253.9424 106.0860 14.72067181652255"}}, "geometry": {"type": "Point", "coordinates": [-33.40803525874243, 18.941209168579444]}}, {"type": "Feature", "properties": {"norad_id": 37928, "name": "FENGYUN 1C DEB", "group": "fengyun-1c-debris", "lat": 19.410740260518843, "lon": -129.27660201821428, "alt_km": 719.592301043057, "timestamp": "2025-12-24T20:42:21.316384+00:00", "meta": {"OBJECT_NAME": "FENGYUN 1C DEB", "OBJECT_ID": "1999-025EPD", "EPOCH": "2025-12-21T09:04:11.551008", "MEAN_MOTION": 14.37132631, "ECCENTRICITY": 0.0073076, "INCLINATION": 98.9148, "RA_OF_ASC_NODE": 230.2847, "ARG_OF_PERICENTER": 7.9876, "MEAN_ANOMALY": 352.2454, "EPHEMERIS_TYPE": 0, "CLASSIFICATION_TYPE": "U", "NORAD_CAT_ID": 37928, "ELEMENT_SET_NO": 999, "REV_AT_EPOCH": 81316, "BSTAR": 0.00050775945, "MEAN_MOTION_DOT": 1.508e-05, "MEAN_MOTION_DDOT": 0}, "tle": {"line1": "1 37928U 99025EPD 25355.37791147  .00001508  00000+0  50776-3 0  9994", "line2": "2 37928  98.9148 230.2847 0073076   7.9876 352.2454 14.37132631813161"}}, "geometry": {"type": "Point", "coordinates": [-129.27660201821428, 19.410740260518843]}}, {"type": "Feature", "properties": {"norad_id": 38116, "name": "FENGYUN 1C DEB", "group": "fengyun-1c-debris", "lat": -62.454739462316454, "lon": -159.7457982544952, "alt_km": 876.8565306543342, "timestamp": "2025-12-24T20:42:21.316394+00:00", "meta": {"OBJECT_NAME": "FENGYUN 1C DEB", "OBJECT_ID": "1999-025EPM", "EPOCH": "2025-12-21T08:35:05.821728", "MEAN_MOTION": 14.17033054, "ECCENTRICITY": 0.00724673, "INCLINATION": 98.7117, "RA_OF_ASC_NODE": 33.9167, "ARG_OF_PERICENTER": 122.4097, "MEAN_ANOMALY": 250.3573, "EPHEMERIS_TYPE": 0, "CLASSIFICATION_TYPE": "U", "NORAD_CAT_ID": 38116, "ELEMENT_SET_NO": 999, "REV_AT_EPOCH": 64607, "BSTAR": 0.00039691226, "MEAN_MOTION_DOT": 7.76e-06, "MEAN_MOTION_DDOT": 0}, "tle": {"line1": "1 38116U 99025EPM 25355.35770627  .00000776  00000+0  39691-3 0  9991", "line2": "2 38116  98.7117  33.9167 0072467 122.4097 250.3573 14.17033054646070"}}, "geometry": {"type": "Point", "coordinates": [-159.7457982544952, -62.454739462316454]}}, {"type": "Feature", "properties": {"norad_id": 38121, "name": "FENGYUN 1C DEB", "group": "fengyun-1c-debris", "lat": 2.705948629159568, "lon": 150.30737049236126, "alt_km": 819.1494156748922, "timestamp": "2025-12-24T20:42:21.316404+00:00", "meta": {"OBJECT_NAME": "FENGYUN 1C DEB", "OBJECT_ID": "1999-025EPS", "EPOCH": "2025-12-13T04:20:01.430304", "MEAN_MOTION": 14.21784212, "ECCENTRICITY": 0.02064826, "INCLINATION": 99.1148, "RA_OF_ASC_NODE": 138.6695, "ARG_OF_PERICENTER": 126.4735, "MEAN_ANOMALY": 235.5664, "EPHEMERIS_TYPE": 0, "CLASSIFICATION_TYPE": "U", "NORAD_CAT_ID": 38121, "ELEMENT_SET_NO": 999, "REV_AT_EPOCH": 83926, "BSTAR": 0.0016630973, "MEAN_MOTION_DOT": 4.5e-05, "MEAN_MOTION_DDOT": 0}, "tle": {"line1": "1 38121U 99025EPS 25347.18057211  .00004500  00000+0  16631-2 0  9993", "line2": "2 38121  99.1148 138.6695 0206482 126.4735 235.5664 14.21784212839268"}}, "geometry": {"type": "Point", "coordinates": [150.30737049236126, 2.705948629159568]}}, {"type": "Feature", "properties": {"norad_id": 38122, "name": "FENGYUN 1C DEB", "group": "fengyun-1c-debris", "lat": 51.139050940796, "lon": -168.53107111851338, "alt_km": 583.693612671018, "timestamp": "2025-12-24T20:42:21.316414+00:00", "meta": {"OBJECT_NAME": "FENGYUN 1C DEB", "OBJECT_ID": "1999-025EPT", "EPOCH": "2025-12-20T11:15:30.693600", "MEAN_MOTION": 14.42669791, "ECCENTRICITY": 0.02281626, "INCLINATION": 98.3168, "RA_OF_ASC_NODE": 356.7199, "ARG_OF_PERICENTER": 133.5612, "MEAN_ANOMALY": 228.4777, "EPHEMERIS_TYPE": 0, "CLASSIFICATION_TYPE": "U", "NORAD_CAT_ID": 38122, "ELEMENT_SET_NO": 999, "REV_AT_EPOCH": 67850, "BSTAR": 0.00022815826, "MEAN_MOTION_DOT": 9.88e-06, "MEAN_MOTION_DDOT": 0}, "tle": {"line1": "1 38122U 99025EPT 25354.46910525  .00000988  00000+0  22816-3 0  9998", "line2": "2 38122  98.3168 356.7199 0228162 133.5612 228.4777 14.42669791678507"}}, "geometry": {"type": "Point", "coordinates": [-168.53107111851338, 51.139050940796]}}, {"type": "Feature", "properties": {"norad_id": 38124, "name": "FENGYUN 1C DEB", "group": "fengyun-1c-debris", "lat": -52.11104254418092, "lon": -41.129432170074466, "alt_km": 885.8569053315132, "timestamp": "2025-12-24T20:42:21.316424+00:00", "meta": {"OBJECT_NAME": "FENGYUN 1C DEB", "OBJECT_ID": "1999-025EPV", "EPOCH": "2025-12-20T14:53:13.924320", "MEAN_MOTION": 13.40937676, "ECCENTRICITY": 0.03554197, "INCLINATION": 97.8099, "RA_OF_ASC_NODE": 305.4265, "ARG_OF_PERICENTER": 285.6733, "MEAN_ANOMALY": 70.5462, "EPHEMERIS_TYPE": 0, "CLASSIFICATION_TYPE": "U", "NORAD_CAT_ID": 38124, "ELEMENT_SET_NO": 999, "REV_AT_EPOCH": 54687, "BSTAR": 0.00016826009, "MEAN_MOTION_DOT": 1.02e-06, "MEAN_MOTION_DDOT": 0}, "tle": {"line1": "1 38124U 99025EPV 25354.62030005  .00000102  00000+0  16826-3 0  9996", "line2": "2 38124  97.8099 305.4265 0355419 285.6733  70.5462 13.40937676546878"}}, "geometry": {"type": "Point", "coordinates": [-41.129432170074466, -52.11104254418092]}}, {"type": "Feature", "properties": {"norad_id": 38130, "name": "FENGYUN 1C DEB", "group": "fengyun-1c-debris", "lat": 30.57272614471918, "lon": -125.44024105622984, "alt_km": 858.7706631847122, "timestamp": "2025-12-24T20:42:21.316434+00:00", "meta": {"OBJECT_NAME": "FENGYUN 1C DEB", "OBJECT_ID": "1999-025EQB", "EPOCH": "2025-11-28T09:19:02.490528", "MEAN_MOTION": 13.7720595, "ECCENTRICITY": 0.02085156, "INCLINATION": 98.6035, "RA_OF_ASC_NODE": 25.4413, "ARG_OF_PERICENTER": 263.5047, "MEAN_ANOMALY": 94.2329, "EPHEMERIS_TYPE": 0, "CLASSIFICATION_TYPE": "U", "NORAD_CAT_ID": 38130, "ELEMENT_SET_NO": 999, "REV_AT_EPOCH": 69085, "BSTAR": 0.0016964005, "MEAN_MOTION_DOT": 1.933e-05, "MEAN_MOTION_DDOT": 0}, "tle": {"line1": "1 38130U 99025EQB 25332.38822327  .00001933  00000+0  16964-2 0  9993", "line2": "2 38130  98.6035  25.4413 0208515 263.5047  94.2329 13.77205950690851"}}, "geometry": {"type": "Point", "coordinates": [-125.44024105622984, 30.57272614471918]}}, {"type": "Feature", "properties": {"norad_id": 38135, "name": "FENGYUN 1C DEB", "group": "fengyun-1c-debris", "lat": 78.60821360744154, "lon": -75.3552506269198, "alt_km": 720.4429170092353, "timestamp": "2025-12-24T20:42:21.316444+00:00", "meta": {"OBJECT_NAME": "FENGYUN 1C DEB", "OBJECT_ID": "1999-025EQG", "EPOCH": "2025-12-20T10:07:36.417792", "MEAN_MOTION": 14.25297349, "ECCENTRICITY": 0.02226674, "INCLINATION": 98.6595, "RA_OF_ASC_NODE": 51.1134, "ARG_OF_PERICENTER": 49.0857, "MEAN_ANOMALY": 312.9371, "EPHEMERIS_TYPE": 0, "CLASSIFICATION_TYPE": "U", "NORAD_CAT_ID": 38135, "ELEMENT_SET_NO": 999, "REV_AT_EPOCH": 61150, "BSTAR": 0.00027123211, "MEAN_MOTION_DOT": 7.8e-06, "MEAN_MOTION_DDOT": 0}, "tle": {"line1": "1 38135U 99025EQG 25354.42194928  .00000780  00000+0  27123-3 0  9995", "line2": "2 38135  98.6595  51.1134 0222667  49.0857 312.9371 14.25297349611502"}}, "geometry": {"type": "Point", "coordinates": [-75.3552506269198, 78.60821360744154]}}, {"type": "Feature", "properties": {"norad_id": 38137, "name": "FENGYUN 1C DEB", "group": "fengyun-1c-debris", "lat": -33.731585497259566, "lon": 47.3336496883804, "alt_km": 866.656080747337, "timestamp": "2025-12-24T20:42:21.316466+00:00", "meta": {"OBJECT_NAME": "FENGYUN 1C DEB", "OBJECT_ID": "1999-025EQJ", "EPOCH": "2025-12-11T22:03:53.453088", "MEAN_MOTION": 14.06158007, "ECCENTRICITY": 0.0046494, "INCLINATION": 98.8649, "RA_OF_ASC_NODE": 28.6821, "ARG_OF_PERICENTER": 71.683, "MEAN_ANOMALY": 288.9388, "EPHEMERIS_TYPE": 0, "CLASSIFICATION_TYPE": "U", "NORAD_CAT_ID": 38137, "ELEMENT_SET_NO": 999, "REV_AT_EPOCH": 63697, "BSTAR": 0.00049172, "MEAN_MOTION_DOT": 7.73e-06, "MEAN_MOTION_DDOT": 0}, "tle": {"line1": "1 38137U 99025EQJ 25345.91936867  .00000773  00000+0  49172-3 0  9997", "line2": "2 38137  98.8649  28.6821 0046494  71.6830 288.9388 14.06158007636976"}}, "geometry": {"type": "Point", "coordinates": [47.3336496883804, -33.731585497259566]}}]}